
# Worst residual: 163.46 km
# MJD 60963.000000 (2025 Oct 15  0:00)
C1AUGE1 = ZTF0Edd = 'Multijunk'
1 89983U 00000AAQ 25288.49919926  .00000000  00000-0  00000-0 0 28262
2 89983 015.5965 353.4176 7807210 214.7421 023.0586 00.35460153    06

# Worst residual: 90.41 km
# MJD 60964.000000 (2025 Oct 16  0:00)
C1AUGE1 = ZTF0Edd = 'Multijunk'
1 89983U 00000AAQ 25289.49919926  .00000000  00000-0  00000-0 0 28263
2 89983 015.5311 353.3838 7810307 215.5897 146.5627 00.34633058    04

# Worst residual: 102.71 km
# MJD 60965.000000 (2025 Oct 17  0:00)
C1AUGE1 = ZTF0Edd = 'Multijunk'
1 89983U 00000AAQ 25290.49919926  .00000000  00000-0  00000-0 0 28265
2 89983 015.4561 353.1470 7834953 216.3252 269.2698 00.34820447    08

# Worst residual: 138.61 km
# MJD 60966.000000 (2025 Oct 18  0:00)
C1AUGE1 = ZTF0Edd = 'Multijunk'
1 89983U 00000AAQ 25291.49919926  .00000000  00000-0  00000-0 0 28266
2 89983 015.4419 353.0084 7866016 217.4216 035.0244 00.35310624    05

# Worst residual: 82.14 km
# MJD 60967.000000 (2025 Oct 19  0:00)
C1AUGE1 = ZTF0Edd = 'Multijunk'
1 89983U 00000AAQ 25292.49919926  .00000000  00000-0  00000-0 0 28267
2 89983 015.3619 352.9199 7861264 218.2706 158.3411 00.34638725    03

# Worst residual: 95.18 km
# MJD 60968.000000 (2025 Oct 20  0:00)
C1AUGE1 = ZTF0Edd = 'Multijunk'
1 89983U 00000AAQ 25293.49919926  .00000000  00000-0  00000-0 0 28268
2 89983 015.3016 352.6850 7885425 219.0187 281.2119 00.34878333    04

# Worst residual: 178.31 km
# MJD 60969.000000 (2025 Oct 21  0:00)
C1AUGE1 = ZTF0Edd = 'Multijunk'
1 89983U 00000AAQ 25294.49919926  .00000000  00000-0  00000-0 0 28269
2 89983 015.2915 352.5918 7914714 220.1260 047.0257 00.35138117    05

# Worst residual: 100.18 km
# MJD 60970.000000 (2025 Oct 22  0:00)
C1AUGE1 = ZTF0Edd = 'Multijunk'
1 89983U 00000AAQ 25295.49919926  .00000000  00000-0  00000-0 0 28260
2 89983 015.2154 352.4785 7907307 220.9035 170.1789 00.34635320    04

# Worst residual: 97.08 km
# MJD 60971.000000 (2025 Oct 23  0:00)
C1AUGE1 = ZTF0Edd = 'Multijunk'
1 89983U 00000AAQ 25296.49919926  .00000000  00000-0  00000-0 0 28261
2 89983 015.1540 352.2021 7936027 221.7452 293.1228 00.34954559    08

# Worst residual: 118.77 km
# MJD 60972.000000 (2025 Oct 24  0:00)
C1AUGE1 = ZTF0Edd = 'Multijunk'
1 89983U 00000AAQ 25297.49919926  .00000000  00000-0  00000-0 0 28262
2 89983 015.1406 352.1507 7956060 222.8813 058.9081 00.34995334    09

# Worst residual: 108.45 km
# MJD 60973.000000 (2025 Oct 25  0:00)
C1AUGE1 = ZTF0Edd = 'Multijunk'
1 89983U 00000AAQ 25298.49919926  .00000000  00000-0  00000-0 0 28263
2 89983 015.0755 352.0017 7953591 223.5865 181.8739 00.34633954    04

# Worst residual: 107.09 km
# MJD 60974.000000 (2025 Oct 26  0:00)
C1AUGE1 = ZTF0Edd = 'Multijunk'
1 89983U 00000AAQ 25299.49919926  .00000000  00000-0  00000-0 0 28264
2 89983 015.0367 351.7624 7984115 224.4619 304.9064 00.35045669    06

# Worst residual: 74.70 km
# MJD 60975.000000 (2025 Oct 27  0:00)
C1AUGE1 = ZTF0Edd = 'Multijunk'
1 89983U 00000AAQ 25300.49919926  .00000000  00000-0  00000-0 0 28267
2 89983 015.0233 351.7271 7990099 225.5936 070.7099 00.34921129    07

# Worst residual: 104.33 km
# MJD 60976.000000 (2025 Oct 28  0:00)
C1AUGE1 = ZTF0Edd = 'Multijunk'
1 89983U 00000AAQ 25301.49919926  .00000000  00000-0  00000-0 0 28268
2 89983 014.9716 351.6013 7995081 226.2115 193.4590 00.34644920    07

# Worst residual: 161.15 km
# MJD 60977.000000 (2025 Oct 29  0:00)
C1AUGE1 = ZTF0Edd = 'Multijunk'
1 89983U 00000AAQ 25302.49919926  .00000000  00000-0  00000-0 0 28269
2 89983 014.9496 351.4514 8028762 227.1193 316.6825 00.35188097    05

# Worst residual: 92.86 km
# MJD 60978.000000 (2025 Oct 30  0:00)
C1AUGE1 = ZTF0Edd = 'Multijunk'
1 89983U 00000AAQ 25303.49919926  .00000000  00000-0  00000-0 0 28260
2 89983 014.9381 351.4296 8025096 228.0731 082.4906 00.34895866    06

# Worst residual: 94.81 km
# MJD 60979.000000 (2025 Oct 31  0:00)
C1AUGE1 = ZTF0Edd = 'Multijunk'
1 89983U 00000AAQ 25304.49919926  .00000000  00000-0  00000-0 0 28261
2 89983 014.9006 351.3251 8029952 228.6725 205.0849 00.34668096    06

# Worst residual: 192.47 km
# MJD 60980.000000 (2025 Nov  1  0:00)
C1AUGE1 = ZTF0Edd = 'Multijunk'
1 89983U 00000AAQ 25305.49919926  .00000000  00000-0  00000-0 0 28262
2 89983 014.8941 351.2120 8062762 229.6049 328.6985 00.35325045    01

# Worst residual: 102.53 km
# MJD 60981.000000 (2025 Nov  2  0:00)
C1AUGE1 = ZTF0Edd = 'Multijunk'
1 89983U 00000AAQ 25306.49919926  .00000000  00000-0  00000-0 0 28263
2 89983 014.8774 351.2120 8057436 230.4402 094.2622 00.34815381    00

# Worst residual: 102.58 km
# MJD 60982.000000 (2025 Nov  3  0:00)
C1AUGE1 = ZTF0Edd = 'Multijunk'
1 89983U 00000AAQ 25307.49919926  .00000000  00000-0  00000-0 0 28264
2 89983 014.8506 351.1271 8074421 231.0093 216.5787 00.34681313    02

# Worst residual: 200.06 km
# MJD 60983.000000 (2025 Nov  4  0:00)
C1AUGE1 = ZTF0Edd = 'Multijunk'
1 89983U 00000AAQ 25308.49919926  .00000000  00000-0  00000-0 0 28265
2 89983 014.8448 351.0491 8112905 231.9943 340.6000 00.35448682    01

# Worst residual: 93.35 km
# MJD 60984.000000 (2025 Nov  5  0:00)
C1AUGE1 = ZTF0Edd = 'Multijunk'
1 89983U 00000AAQ 25309.49919926  .00000000  00000-0  00000-0 0 28266
2 89983 014.8582 351.1083 8100407 232.7909 105.8915 00.34756400    08

# Worst residual: 103.11 km
# MJD 60985.000000 (2025 Nov  6  0:00)
C1AUGE1 = ZTF0Edd = 'Multijunk'
1 89983U 00000AAQ 25310.49919926  .00000000  00000-0  00000-0 0 28268
2 89983 014.9213 351.4225 8102723 233.0457 227.6943 00.34641418    02

# Worst residual: 154.27 km
# MJD 60986.000000 (2025 Nov  7  0:00)
C1AUGE1 = ZTF0Edd = 'Multijunk'
1 89983U 00000AAQ 25311.49919926  .00000000  00000-0  00000-0 0 28269
2 89983 014.9481 351.6710 8127008 233.7464 351.6877 00.35537064    04

# Worst residual: 78.14 km
# MJD 60987.000000 (2025 Nov  8  0:00)
C1AUGE1 = ZTF0Edd = 'Multijunk'
1 89983U 00000AAQ 25312.49919926  .00000000  00000-0  00000-0 0 28260
2 89983 014.9436 351.6746 8115856 234.5308 116.7780 00.34758042    00

# Worst residual: 86.73 km
# MJD 60988.000000 (2025 Nov  9  0:00)
C1AUGE1 = ZTF0Edd = 'Multijunk'
1 89983U 00000AAQ 25313.49919926  .00000000  00000-0  00000-0 0 28261
2 89983 014.9483 351.7138 8122029 234.9573 239.2511 00.34734859    09

# Worst residual: 99.71 km
# MJD 60989.000000 (2025 Nov 10  0:00)
C1AUGE1 = ZTF0Edd = 'Multijunk'
1 89983U 00000AAQ 25314.49919926  .00000000  00000-0  00000-0 0 28262
2 89983 014.9572 351.7937 8135097 235.7203 003.9974 00.35623337    01

# Worst residual: 86.78 km
# MJD 60990.000000 (2025 Nov 11  0:00)
C1AUGE1 = ZTF0Edd = 'Multijunk'
1 89983U 00000AAQ 25315.49919926  .00000000  00000-0  00000-0 0 28263
2 89983 014.9553 351.8247 8131891 236.4756 128.4957 00.34717878    01

# Worst residual: 85.77 km
# MJD 60991.000000 (2025 Nov 12  0:00)
C1AUGE1 = ZTF0Edd = 'Multijunk'
1 89983U 00000AAQ 25316.49919926  .00000000  00000-0  00000-0 0 28264
2 89983 014.9566 351.8425 8144400 236.9420 250.8808 00.34772161    07

# Worst residual: 129.28 km
# MJD 60992.000000 (2025 Nov 13  0:00)
C1AUGE1 = ZTF0Edd = 'Multijunk'
1 89983U 00000AAQ 25317.49919926  .00000000  00000-0  00000-0 0 28265
2 89983 014.9650 351.9004 8160608 237.7191 016.1784 00.35592336    08

# Worst residual: 89.01 km
# MJD 60993.000000 (2025 Nov 14  0:00)
C1AUGE1 = ZTF0Edd = 'Multijunk'
1 89983U 00000AAQ 25318.49919926  .00000000  00000-0  00000-0 0 28266
2 89983 014.9735 351.9470 8153662 238.4961 140.1280 00.34692470    02

# Worst residual: 78.15 km
# MJD 60994.000000 (2025 Nov 15  0:00)
C1AUGE1 = ZTF0Edd = 'Multijunk'
1 89983U 00000AAQ 25319.49919926  .00000000  00000-0  00000-0 0 28267
2 89983 014.9868 352.0455 8160608 238.8863 262.5269 00.34791211    06

# Worst residual: 159.84 km
# MJD 60995.000000 (2025 Nov 16  0:00)
C1AUGE1 = ZTF0Edd = 'Multijunk'
1 89983U 00000AAQ 25320.49919926  .00000000  00000-0  00000-0 0 28269
2 89983 014.9960 352.1029 8181104 239.6821 028.1211 00.35434629    05

# Worst residual: 89.70 km
# MJD 60996.000000 (2025 Nov 17  0:00)
C1AUGE1 = ZTF0Edd = 'Multijunk'
1 89983U 00000AAQ 25321.49919926  .00000000  00000-0  00000-0 0 28260
2 89983 015.0034 352.1516 8164322 240.4325 151.7448 00.34670545    05

# Worst residual: 75.29 km
# MJD 60997.000000 (2025 Nov 18  0:00)
C1AUGE1 = ZTF0Edd = 'Multijunk'
1 89983U 00000AAQ 25322.49919926  .00000000  00000-0  00000-0 0 28261
2 89983 015.0228 352.3057 8171059 240.7601 274.2858 00.34827733    06

# Worst residual: 185.36 km
# MJD 60998.000000 (2025 Nov 19  0:00)
C1AUGE1 = ZTF0Edd = 'Multijunk'
1 89983U 00000AAQ 25323.49919926  .00000000  00000-0  00000-0 0 28262
2 89983 015.0313 352.3869 8192134 241.5534 040.0561 00.35288759    03

# Worst residual: 91.05 km
# MJD 60999.000000 (2025 Nov 20  0:00)
C1AUGE1 = ZTF0Edd = 'Multijunk'
1 89983U 00000AAQ 25324.49919926  .00000000  00000-0  00000-0 0 28263
2 89983 015.0500 352.4962 8170737 242.2007 163.4173 00.34656725    04

# Worst residual: 73.74 km
# MJD 61000.000000 (2025 Nov 21  0:00)
C1AUGE1 = ZTF0Edd = 'Multijunk'
1 89983U 00000AAQ 25325.49919926  .00000000  00000-0  00000-0 0 28264
2 89983 015.0603 352.6220 8180542 242.5718 286.1002 00.34887167    04

# Worst residual: 186.24 km
# MJD 61001.000000 (2025 Nov 22  0:00)
C1AUGE1 = ZTF0Edd = 'Multijunk'
1 89983U 00000AAQ 25326.49919926  .00000000  00000-0  00000-0 0 28265
2 89983 015.0738 352.7189 8196357 243.4132 051.9478 00.35154736    04

# Worst residual: 94.92 km
# MJD 61002.000000 (2025 Nov 23  0:00)
C1AUGE1 = ZTF0Edd = 'Multijunk'
1 89983U 00000AAQ 25327.49919926  .00000000  00000-0  00000-0 0 28266
2 89983 015.0992 352.8666 8174954 243.9467 175.0939 00.34648754    09

# Worst residual: 81.53 km
# MJD 61003.000000 (2025 Nov 24  0:00)
C1AUGE1 = ZTF0Edd = 'Multijunk'
1 89983U 00000AAQ 25328.49919926  .00000000  00000-0  00000-0 0 28267
2 89983 015.1185 353.0559 8186307 244.3068 297.8530 00.34968834    09
